CCSDS_OMM_VERS = 2.0
CREATION_DATE  = 
ORIGINATOR     = 

OBJECT_NAME    = STARLINK-36193
OBJECT_ID      = 2025-298AA
CENTER_NAME    = EARTH
REF_FRAME      = TEME
TIME_SYSTEM    = UTC
MEAN_ELEMENT_THEORY = SGP/SGP4

EPOCH          = 2026-01-08T11:56:22.619328
MEAN_MOTION    = 15.42757424
ECCENTRICITY   = .0003441
INCLINATION    = 70.0003
RA_OF_ASC_NODE = 175.3514
ARG_OF_PERICENTER = 274.9490
MEAN_ANOMALY   = 85.1299

EPHEMERIS_TYPE = 0
CLASSIFICATION_TYPE = U
NORAD_CAT_ID   = 67099
ELEMENT_SET_NO = 999
REV_AT_EPOCH   = 397
BSTAR          = .12752E-2
MEAN_MOTION_DOT = .56191E-3
MEAN_MOTION_DDOT = 0

CCSDS_OMM_VERS = 2.0
CREATION_DATE  = 
ORIGINATOR     = 

OBJECT_NAME    = STARLINK-36215
OBJECT_ID      = 2025-298AB
CENTER_NAME    = EARTH
REF_FRAME      = TEME
TIME_SYSTEM    = UTC
MEAN_ELEMENT_THEORY = SGP/SGP4

EPOCH          = 2026-01-08T11:43:08.555808
MEAN_MOTION    = 15.52593470
ECCENTRICITY   = .0002752
INCLINATION    = 70.0002
RA_OF_ASC_NODE = 174.9054
ARG_OF_PERICENTER = 276.1379
MEAN_ANOMALY   = 83.9494

EPHEMERIS_TYPE = 0
CLASSIFICATION_TYPE = U
NORAD_CAT_ID   = 67100
ELEMENT_SET_NO = 999
REV_AT_EPOCH   = 398
BSTAR          = .24432E-2
MEAN_MOTION_DOT = .15348E-2
MEAN_MOTION_DDOT = 0

CCSDS_OMM_VERS = 2.0
CREATION_DATE  = 
ORIGINATOR     = 

OBJECT_NAME    = STARLINK-36200
OBJECT_ID      = 2025-298AC
CENTER_NAME    = EARTH
REF_FRAME      = TEME
TIME_SYSTEM    = UTC
MEAN_ELEMENT_THEORY = SGP/SGP4

EPOCH          = 2026-01-08T12:00:01.999296
MEAN_MOTION    = 15.42689099
ECCENTRICITY   = .0003502
INCLINATION    = 70.0005
RA_OF_ASC_NODE = 174.9844
ARG_OF_PERICENTER = 269.0079
MEAN_ANOMALY   = 59.1676

EPHEMERIS_TYPE = 0
CLASSIFICATION_TYPE = U
NORAD_CAT_ID   = 67101
ELEMENT_SET_NO = 999
REV_AT_EPOCH   = 527
BSTAR          = .10195E-2
MEAN_MOTION_DOT = .44722E-3
MEAN_MOTION_DDOT = 0

CCSDS_OMM_VERS = 2.0
CREATION_DATE  = 
ORIGINATOR     = 

OBJECT_NAME    = STARLINK-36255
OBJECT_ID      = 2025-299A
CENTER_NAME    = EARTH
REF_FRAME      = TEME
TIME_SYSTEM    = UTC
MEAN_ELEMENT_THEORY = SGP/SGP4

EPOCH          = 2026-01-08T10:52:29.974944
MEAN_MOTION    = 15.40750156
ECCENTRICITY   = .00036
INCLINATION    = 43.0006
RA_OF_ASC_NODE = 156.1266
ARG_OF_PERICENTER = 305.2137
MEAN_ANOMALY   = 54.8382

EPHEMERIS_TYPE = 0
CLASSIFICATION_TYPE = U
NORAD_CAT_ID   = 67102
ELEMENT_SET_NO = 999
REV_AT_EPOCH   = 382
BSTAR          = .11781E-2
MEAN_MOTION_DOT = .49315E-3
MEAN_MOTION_DDOT = 0

CCSDS_OMM_VERS = 2.0
CREATION_DATE  = 
ORIGINATOR     = 

OBJECT_NAME    = STARLINK-36256
OBJECT_ID      = 2025-299B
CENTER_NAME    = EARTH
REF_FRAME      = TEME
TIME_SYSTEM    = UTC
MEAN_ELEMENT_THEORY = SGP/SGP4

EPOCH          = 2026-01-08T12:00:01.999296
MEAN_MOTION    = 15.40677381
ECCENTRICITY   = .0001539
INCLINATION    = 43.0005
RA_OF_ASC_NODE = 155.7948
ARG_OF_PERICENTER = 273.6994
MEAN_ANOMALY   = 11.6831

EPHEMERIS_TYPE = 0
CLASSIFICATION_TYPE = U
NORAD_CAT_ID   = 67103
ELEMENT_SET_NO = 999
REV_AT_EPOCH   = 510
BSTAR          = .66433E-3
MEAN_MOTION_DOT = .27527E-3
MEAN_MOTION_DDOT = 0

CCSDS_OMM_VERS = 2.0
CREATION_DATE  = 
ORIGINATOR     = 

OBJECT_NAME    = STARLINK-36258
OBJECT_ID      = 2025-299C
CENTER_NAME    = EARTH
REF_FRAME      = TEME
TIME_SYSTEM    = UTC
MEAN_ELEMENT_THEORY = SGP/SGP4

EPOCH          = 2026-01-08T10:10:23.815200
MEAN_MOTION    = 15.50674912
ECCENTRICITY   = .0004433
INCLINATION    = 42.9999
RA_OF_ASC_NODE = 155.8986
ARG_OF_PERICENTER = 291.0097
MEAN_ANOMALY   = 69.0289

EPHEMERIS_TYPE = 0
CLASSIFICATION_TYPE = U
NORAD_CAT_ID   = 67104
ELEMENT_SET_NO = 999
REV_AT_EPOCH   = 382
BSTAR          = .21603E-2
MEAN_MOTION_DOT = .128971E-2
MEAN_MOTION_DDOT = 0

CCSDS_OMM_VERS = 2.0
CREATION_DATE  = 
ORIGINATOR     = 

OBJECT_NAME    = STARLINK-36261
OBJECT_ID      = 2025-299D
CENTER_NAME    = EARTH
REF_FRAME      = TEME
TIME_SYSTEM    = UTC
MEAN_ELEMENT_THEORY = SGP/SGP4

EPOCH          = 2026-01-08T12:00:01.999296
MEAN_MOTION    = 15.40667340
ECCENTRICITY   = .0001532
INCLINATION    = 43.0005
RA_OF_ASC_NODE = 155.8252
ARG_OF_PERICENTER = 275.2591
MEAN_ANOMALY   = 357.7000

EPHEMERIS_TYPE = 0
CLASSIFICATION_TYPE = U
NORAD_CAT_ID   = 67105
ELEMENT_SET_NO = 999
REV_AT_EPOCH   = 510
BSTAR          = .67811E-3
MEAN_MOTION_DOT = .28096E-3
MEAN_MOTION_DDOT = 0

CCSDS_OMM_VERS = 2.0
CREATION_DATE  = 
ORIGINATOR     = 

OBJECT_NAME    = STARLINK-36259
OBJECT_ID      = 2025-299E
CENTER_NAME    = EARTH
REF_FRAME      = TEME
TIME_SYSTEM    = UTC
MEAN_ELEMENT_THEORY = SGP/SGP4

EPOCH          = 2026-01-08T12:00:01.999296
MEAN_MOTION    = 15.40678855
ECCENTRICITY   = .0001778
INCLINATION    = 43.0001
RA_OF_ASC_NODE = 155.5829
ARG_OF_PERICENTER = 280.5119
MEAN_ANOMALY   = 91.9428

EPHEMERIS_TYPE = 0
CLASSIFICATION_TYPE = U
NORAD_CAT_ID   = 67106
ELEMENT_SET_NO = 999
REV_AT_EPOCH   = 510
BSTAR          = .553E-3
MEAN_MOTION_DOT = .2285E-3
MEAN_MOTION_DDOT = 0

CCSDS_OMM_VERS = 2.0
CREATION_DATE  = 
ORIGINATOR     = 

OBJECT_NAME    = STARLINK-36196
OBJECT_ID      = 2025-299F
CENTER_NAME    = EARTH
REF_FRAME      = TEME
TIME_SYSTEM    = UTC
MEAN_ELEMENT_THEORY = SGP/SGP4

EPOCH          = 2026-01-07T17:09:03.918816
MEAN_MOTION    = 15.50654455
ECCENTRICITY   = .00019184
INCLINATION    = 43.0000
RA_OF_ASC_NODE = 160.0353
ARG_OF_PERICENTER = 268.6018
MEAN_ANOMALY   = 91.4623

EPHEMERIS_TYPE = 0
CLASSIFICATION_TYPE = U
NORAD_CAT_ID   = 67107
ELEMENT_SET_NO = 999
REV_AT_EPOCH   = 371
BSTAR          = .15878135E-2
MEAN_MOTION_DOT = .94191E-3
MEAN_MOTION_DDOT = 0

CCSDS_OMM_VERS = 2.0
CREATION_DATE  = 
ORIGINATOR     = 

OBJECT_NAME    = STARLINK-36208
OBJECT_ID      = 2025-299G
CENTER_NAME    = EARTH
REF_FRAME      = TEME
TIME_SYSTEM    = UTC
MEAN_ELEMENT_THEORY = SGP/SGP4

EPOCH          = 2026-01-08T10:08:25.481760
MEAN_MOTION    = 15.50660115
ECCENTRICITY   = .0004758
INCLINATION    = 43.0002
RA_OF_ASC_NODE = 155.8885
ARG_OF_PERICENTER = 292.0996
MEAN_ANOMALY   = 67.9359

EPHEMERIS_TYPE = 0
CLASSIFICATION_TYPE = U
NORAD_CAT_ID   = 67108
ELEMENT_SET_NO = 999
REV_AT_EPOCH   = 382
BSTAR          = .19142E-2
MEAN_MOTION_DOT = .113967E-2
MEAN_MOTION_DDOT = 0

CCSDS_OMM_VERS = 2.0
CREATION_DATE  = 
ORIGINATOR     = 

OBJECT_NAME    = STARLINK-35764
OBJECT_ID      = 2025-299H
CENTER_NAME    = EARTH
REF_FRAME      = TEME
TIME_SYSTEM    = UTC
MEAN_ELEMENT_THEORY = SGP/SGP4

EPOCH          = 2026-01-08T12:00:01.999296
MEAN_MOTION    = 15.40665421
ECCENTRICITY   = .0001377
INCLINATION    = 43.0003
RA_OF_ASC_NODE = 155.7040
ARG_OF_PERICENTER = 265.7252
MEAN_ANOMALY   = 57.0122

EPHEMERIS_TYPE = 0
CLASSIFICATION_TYPE = U
NORAD_CAT_ID   = 67109
ELEMENT_SET_NO = 999
REV_AT_EPOCH   = 500
BSTAR          = .53955E-3
MEAN_MOTION_DOT = .22275E-3
MEAN_MOTION_DDOT = 0

CCSDS_OMM_VERS = 2.0
CREATION_DATE  = 
ORIGINATOR     = 

OBJECT_NAME    = STARLINK-35781
OBJECT_ID      = 2025-299J
CENTER_NAME    = EARTH
REF_FRAME      = TEME
TIME_SYSTEM    = UTC
MEAN_ELEMENT_THEORY = SGP/SGP4

EPOCH          = 2026-01-07T09:23:19.023360
MEAN_MOTION    = 15.49882893
ECCENTRICITY   = .0002324
INCLINATION    = 42.9989
RA_OF_ASC_NODE = 161.9098
ARG_OF_PERICENTER = 326.7971
MEAN_ANOMALY   = 33.2743

EPHEMERIS_TYPE = 0
CLASSIFICATION_TYPE = U
NORAD_CAT_ID   = 67110
ELEMENT_SET_NO = 999
REV_AT_EPOCH   = 366
BSTAR          = .30968805E-3
MEAN_MOTION_DOT = .17425E-3
MEAN_MOTION_DDOT = 0

