STARLINK-36193          
1 67099U 25298AA  26008.49748402  .00056191  00000+0  12752-2 0  9991
2 67099  70.0003 175.3514 0003441 274.9490  85.1299 15.42757424  3970
STARLINK-36215          
1 67100U 25298AB  26008.48829347  .00153480  00000+0  24432-2 0  9998
2 67100  70.0002 174.9054 0002752 276.1379  83.9494 15.52593470  3984
STARLINK-36200          
1 67101U 25298AC  26008.50002314  .00044722  00000+0  10195-2 0  9998
2 67101  70.0005 174.9844 0003502 269.0079  59.1676 15.42689099  5270
STARLINK-36255          
1 67102U 25299A   26008.45312471  .00049315  00000+0  11781-2 0  9997
2 67102  43.0006 156.1266 0003600 305.2137  54.8382 15.40750156  3825
STARLINK-36256          
1 67103U 25299B   26008.50002314  .00027527  00000+0  66433-3 0  9992
2 67103  43.0005 155.7948 0001539 273.6994  11.6831 15.40677381  5106
STARLINK-36258          
1 67104U 25299C   26008.42388675  .00128971  00000+0  21603-2 0  9995
2 67104  42.9999 155.8986 0004433 291.0097  69.0289 15.50674912  3823
STARLINK-36261          
1 67105U 25299D   26008.50002314  .00028096  00000+0  67811-3 0  9997
2 67105  43.0005 155.8252 0001532 275.2591 357.7000 15.40667340  5107
STARLINK-36259          
1 67106U 25299E   26008.50002314  .00022850  00000+0  55300-3 0  9990
2 67106  43.0001 155.5829 0001778 280.5119  91.9428 15.40678855  5102
STARLINK-36196          
1 67107U 25299F   26007.71462869  .00094191  00000+0  15878-2 0  9990
2 67107  43.0000 160.0353 0001918 268.6018  91.4623 15.50654455  3714
STARLINK-36208          
1 67108U 25299G   26008.42251715  .00113967  00000+0  19142-2 0  9997
2 67108  43.0002 155.8885 0004758 292.0996  67.9359 15.50660115  3826
STARLINK-35764          
1 67109U 25299H   26008.50002314  .00022275  00000+0  53955-3 0  9998
2 67109  43.0003 155.7040 0001377 265.7252  57.0122 15.40665421  5000
STARLINK-35781          
1 67110U 25299J   26007.39119240  .00017425  00000+0  30969-3 0  9994
2 67110  42.9989 161.9098 0002324 326.7971  33.2743 15.49882893  3662
